SL-16 R/B               
1 25407U 98045B   26071.53976983  .00000292  00000+0  17134-3 0  9991
2 25407  71.0120 175.5808 0006917   3.7905 356.3269 14.16191509427501
ISS (ZARYA)             
1 25544U 98067A   26071.41729871  .00009444  00000+0  18173-3 0  9998
2 25544  51.6324  58.8700 0007975 184.3112 175.7809 15.48601092556750
CZ-4B R/B               
1 25732U 99025C   26071.57635841  .00000055  00000+0  47596-4 0  9993
2 25732  98.6621 115.7895 0036593 338.2010 176.9735 14.18265989388574
OKEAN-O                 
1 25860U 99039A   26071.55848471  .00000857  00000+0  11922-3 0  9996
2 25860  97.9437 131.4208 0001164  70.8656 289.2682 14.80340827434819
SL-16 R/B               
1 25861U 99039B   26071.60317569  .00000733  00000+0  99680-4 0  9993
2 25861  97.9961 130.6957 0013593 245.6497 114.3296 14.81736426437297
DELTA 2 R/B             
1 25876U 99041E   26071.55663152  .00001427  00000+0  26782-3 0  9991
2 25876  51.7625 289.8292 0502444 356.8855   2.8986 14.11847454363436
HELIOS 1B               
1 25977U 99064A   26071.26967842  .00002398  00000+0  26956-3 0  9990
2 25977  98.1687 333.5885 0002441  71.6975 288.4506 14.87711208685643
TERRA                   
1 25994U 99068A   26071.61077190  .00000540  00000+0  11918-3 0  9999
2 25994  97.9588 124.9339 0002873 144.8362  16.6982 14.61018365395505
SL-16 R/B               
1 26070U 00006B   26071.48526720 -.00000168  00000+0 -61237-4 0  9990
2 26070  71.0006  91.9589 0016616 186.1025 173.9898 14.15825371348956
TITAN 4B R/B            
1 26474U 00047B   26071.61186999  .00005302  00000+0  33160-3 0  9994
2 26474  67.9903  32.2928 0038662  31.9673 328.3810 15.09595648393359
ENVISAT                 
1 27386U 02009A   26071.47222046  .00000169  00000+0  68716-4 0  9997
2 27386  98.3732  25.0034 0001308  83.1199  26.8150 14.39038169259571
IDEFIX & ARIANE 42P R/B 
1 27422U 02021B   26071.57233979  .00000347  00000+0  14826-3 0  9990
2 27422  98.5870  10.1441 0011747 173.6441 186.4894 14.31028525244431
