CCSDS_OMM_VERS = 2.0
CREATION_DATE  = 
ORIGINATOR     = 

OBJECT_NAME    = SL-16 R/B
OBJECT_ID      = 1998-045B
CENTER_NAME    = EARTH
REF_FRAME      = TEME
TIME_SYSTEM    = UTC
MEAN_ELEMENT_THEORY = SGP/SGP4

EPOCH          = 2026-03-12T12:57:16.113312
MEAN_MOTION    = 14.16191509
ECCENTRICITY   = .00069175
INCLINATION    = 71.0120
RA_OF_ASC_NODE = 175.5808
ARG_OF_PERICENTER = 3.7905
MEAN_ANOMALY   = 356.3269

EPHEMERIS_TYPE = 0
CLASSIFICATION_TYPE = U
NORAD_CAT_ID   = 25407
ELEMENT_SET_NO = 999
REV_AT_EPOCH   = 42750
BSTAR          = .1713447E-3
MEAN_MOTION_DOT = .292E-5
MEAN_MOTION_DDOT = 0

CCSDS_OMM_VERS = 2.0
CREATION_DATE  = 
ORIGINATOR     = 

OBJECT_NAME    = ISS (ZARYA)
OBJECT_ID      = 1998-067A
CENTER_NAME    = EARTH
REF_FRAME      = TEME
TIME_SYSTEM    = UTC
MEAN_ELEMENT_THEORY = SGP/SGP4

EPOCH          = 2026-03-12T10:00:54.608544
MEAN_MOTION    = 15.48601092
ECCENTRICITY   = .00079757
INCLINATION    = 51.6324
RA_OF_ASC_NODE = 58.8700
ARG_OF_PERICENTER = 184.3112
MEAN_ANOMALY   = 175.7809

EPHEMERIS_TYPE = 0
CLASSIFICATION_TYPE = U
NORAD_CAT_ID   = 25544
ELEMENT_SET_NO = 999
REV_AT_EPOCH   = 55675
BSTAR          = .18173156E-3
MEAN_MOTION_DOT = .9444E-4
MEAN_MOTION_DDOT = 0

CCSDS_OMM_VERS = 2.0
CREATION_DATE  = 
ORIGINATOR     = 

OBJECT_NAME    = CZ-4B R/B
OBJECT_ID      = 1999-025C
CENTER_NAME    = EARTH
REF_FRAME      = TEME
TIME_SYSTEM    = UTC
MEAN_ELEMENT_THEORY = SGP/SGP4

EPOCH          = 2026-03-12T13:49:57.366624
MEAN_MOTION    = 14.18265989
ECCENTRICITY   = .0036593
INCLINATION    = 98.6621
RA_OF_ASC_NODE = 115.7895
ARG_OF_PERICENTER = 338.2010
MEAN_ANOMALY   = 176.9735

EPHEMERIS_TYPE = 0
CLASSIFICATION_TYPE = U
NORAD_CAT_ID   = 25732
ELEMENT_SET_NO = 999
REV_AT_EPOCH   = 38857
BSTAR          = .47595822E-4
MEAN_MOTION_DOT = .55E-6
MEAN_MOTION_DDOT = 0

CCSDS_OMM_VERS = 2.0
CREATION_DATE  = 
ORIGINATOR     = 

OBJECT_NAME    = OKEAN-O
OBJECT_ID      = 1999-039A
CENTER_NAME    = EARTH
REF_FRAME      = TEME
TIME_SYSTEM    = UTC
MEAN_ELEMENT_THEORY = SGP/SGP4

EPOCH          = 2026-03-12T13:24:13.078944
MEAN_MOTION    = 14.80340827
ECCENTRICITY   = .00011646
INCLINATION    = 97.9437
RA_OF_ASC_NODE = 131.4208
ARG_OF_PERICENTER = 70.8656
MEAN_ANOMALY   = 289.2682

EPHEMERIS_TYPE = 0
CLASSIFICATION_TYPE = U
NORAD_CAT_ID   = 25860
ELEMENT_SET_NO = 999
REV_AT_EPOCH   = 43481
BSTAR          = .11921661E-3
MEAN_MOTION_DOT = .857E-5
MEAN_MOTION_DDOT = 0

CCSDS_OMM_VERS = 2.0
CREATION_DATE  = 
ORIGINATOR     = 

OBJECT_NAME    = SL-16 R/B
OBJECT_ID      = 1999-039B
CENTER_NAME    = EARTH
REF_FRAME      = TEME
TIME_SYSTEM    = UTC
MEAN_ELEMENT_THEORY = SGP/SGP4

EPOCH          = 2026-03-12T14:28:34.379616
MEAN_MOTION    = 14.81736426
ECCENTRICITY   = .00135932
INCLINATION    = 97.9961
RA_OF_ASC_NODE = 130.6957
ARG_OF_PERICENTER = 245.6497
MEAN_ANOMALY   = 114.3296

EPHEMERIS_TYPE = 0
CLASSIFICATION_TYPE = U
NORAD_CAT_ID   = 25861
ELEMENT_SET_NO = 999
REV_AT_EPOCH   = 43729
BSTAR          = .9967978E-4
MEAN_MOTION_DOT = .733E-5
MEAN_MOTION_DDOT = 0

CCSDS_OMM_VERS = 2.0
CREATION_DATE  = 
ORIGINATOR     = 

OBJECT_NAME    = DELTA 2 R/B
OBJECT_ID      = 1999-041E
CENTER_NAME    = EARTH
REF_FRAME      = TEME
TIME_SYSTEM    = UTC
MEAN_ELEMENT_THEORY = SGP/SGP4

EPOCH          = 2026-03-12T13:21:32.963328
MEAN_MOTION    = 14.11847454
ECCENTRICITY   = .05024449
INCLINATION    = 51.7625
RA_OF_ASC_NODE = 289.8292
ARG_OF_PERICENTER = 356.8855
MEAN_ANOMALY   = 2.8986

EPHEMERIS_TYPE = 0
CLASSIFICATION_TYPE = U
NORAD_CAT_ID   = 25876
ELEMENT_SET_NO = 999
REV_AT_EPOCH   = 36343
BSTAR          = .26782048E-3
MEAN_MOTION_DOT = .1427E-4
MEAN_MOTION_DDOT = 0

CCSDS_OMM_VERS = 2.0
CREATION_DATE  = 
ORIGINATOR     = 

OBJECT_NAME    = HELIOS 1B
OBJECT_ID      = 1999-064A
CENTER_NAME    = EARTH
REF_FRAME      = TEME
TIME_SYSTEM    = UTC
MEAN_ELEMENT_THEORY = SGP/SGP4

EPOCH          = 2026-03-12T06:28:20.215488
MEAN_MOTION    = 14.87711208
ECCENTRICITY   = .00024418
INCLINATION    = 98.1687
RA_OF_ASC_NODE = 333.5885
ARG_OF_PERICENTER = 71.6975
MEAN_ANOMALY   = 288.4506

EPHEMERIS_TYPE = 0
CLASSIFICATION_TYPE = U
NORAD_CAT_ID   = 25977
ELEMENT_SET_NO = 999
REV_AT_EPOCH   = 68564
BSTAR          = .26956233E-3
MEAN_MOTION_DOT = .2398E-4
MEAN_MOTION_DDOT = 0

CCSDS_OMM_VERS = 2.0
CREATION_DATE  = 
ORIGINATOR     = 

OBJECT_NAME    = TERRA
OBJECT_ID      = 1999-068A
CENTER_NAME    = EARTH
REF_FRAME      = TEME
TIME_SYSTEM    = UTC
MEAN_ELEMENT_THEORY = SGP/SGP4

EPOCH          = 2026-03-12T14:39:30.692160
MEAN_MOTION    = 14.61018365
ECCENTRICITY   = .0002873
INCLINATION    = 97.9588
RA_OF_ASC_NODE = 124.9339
ARG_OF_PERICENTER = 144.8362
MEAN_ANOMALY   = 16.6982

EPHEMERIS_TYPE = 0
CLASSIFICATION_TYPE = U
NORAD_CAT_ID   = 25994
ELEMENT_SET_NO = 999
REV_AT_EPOCH   = 39550
BSTAR          = .11918411E-3
MEAN_MOTION_DOT = .54E-5
MEAN_MOTION_DDOT = 0

CCSDS_OMM_VERS = 2.0
CREATION_DATE  = 
ORIGINATOR     = 

OBJECT_NAME    = SL-16 R/B
OBJECT_ID      = 2000-006B
CENTER_NAME    = EARTH
REF_FRAME      = TEME
TIME_SYSTEM    = UTC
MEAN_ELEMENT_THEORY = SGP/SGP4

EPOCH          = 2026-03-12T11:38:47.086080
MEAN_MOTION    = 14.15825371
ECCENTRICITY   = .00166163
INCLINATION    = 71.0006
RA_OF_ASC_NODE = 91.9589
ARG_OF_PERICENTER = 186.1025
MEAN_ANOMALY   = 173.9898

EPHEMERIS_TYPE = 0
CLASSIFICATION_TYPE = U
NORAD_CAT_ID   = 26070
ELEMENT_SET_NO = 999
REV_AT_EPOCH   = 34895
BSTAR          = -.61237452E-4
MEAN_MOTION_DOT = -.168E-5
MEAN_MOTION_DDOT = 0

CCSDS_OMM_VERS = 2.0
CREATION_DATE  = 
ORIGINATOR     = 

OBJECT_NAME    = TITAN 4B R/B
OBJECT_ID      = 2000-047B
CENTER_NAME    = EARTH
REF_FRAME      = TEME
TIME_SYSTEM    = UTC
MEAN_ELEMENT_THEORY = SGP/SGP4

EPOCH          = 2026-03-12T14:41:05.567136
MEAN_MOTION    = 15.09595648
ECCENTRICITY   = .00386627
INCLINATION    = 67.9903
RA_OF_ASC_NODE = 32.2928
ARG_OF_PERICENTER = 31.9673
MEAN_ANOMALY   = 328.3810

EPHEMERIS_TYPE = 0
CLASSIFICATION_TYPE = U
NORAD_CAT_ID   = 26474
ELEMENT_SET_NO = 999
REV_AT_EPOCH   = 39335
BSTAR          = .33160465E-3
MEAN_MOTION_DOT = .5302E-4
MEAN_MOTION_DDOT = 0

CCSDS_OMM_VERS = 2.0
CREATION_DATE  = 
ORIGINATOR     = 

OBJECT_NAME    = ENVISAT
OBJECT_ID      = 2002-009A
CENTER_NAME    = EARTH
REF_FRAME      = TEME
TIME_SYSTEM    = UTC
MEAN_ELEMENT_THEORY = SGP/SGP4

EPOCH          = 2026-03-12T11:19:59.847744
MEAN_MOTION    = 14.39038169
ECCENTRICITY   = .00013087
INCLINATION    = 98.3732
RA_OF_ASC_NODE = 25.0034
ARG_OF_PERICENTER = 83.1199
MEAN_ANOMALY   = 26.8150

EPHEMERIS_TYPE = 0
CLASSIFICATION_TYPE = U
NORAD_CAT_ID   = 27386
ELEMENT_SET_NO = 999
REV_AT_EPOCH   = 25957
BSTAR          = .68715855E-4
MEAN_MOTION_DOT = .169E-5
MEAN_MOTION_DDOT = 0

CCSDS_OMM_VERS = 2.0
CREATION_DATE  = 
ORIGINATOR     = 

OBJECT_NAME    = IDEFIX & ARIANE 42P R/B
OBJECT_ID      = 2002-021B
CENTER_NAME    = EARTH
REF_FRAME      = TEME
TIME_SYSTEM    = UTC
MEAN_ELEMENT_THEORY = SGP/SGP4

EPOCH          = 2026-03-12T13:44:10.157856
MEAN_MOTION    = 14.31028525
ECCENTRICITY   = .0011747
INCLINATION    = 98.5870
RA_OF_ASC_NODE = 10.1441
ARG_OF_PERICENTER = 173.6441
MEAN_ANOMALY   = 186.4894

EPHEMERIS_TYPE = 0
CLASSIFICATION_TYPE = U
NORAD_CAT_ID   = 27422
ELEMENT_SET_NO = 999
REV_AT_EPOCH   = 24443
BSTAR          = .14825564E-3
MEAN_MOTION_DOT = .347E-5
MEAN_MOTION_DDOT = 0

